<?xml version="1.0" encoding="UTF-8"?>
<gpx version="1.1" creator="osm_traces.py" xmlns="http://www.topografix.com/GPX/1/1">
<wpt lat="35.3966" lon="138.7333"><name>五合目</name><type>start</type></wpt>
<wpt lat="35.3903" lon="138.7398"><name>六合目</name><type>wp</type></wpt>
<wpt lat="35.3852" lon="138.7438"><name>七合目</name><type>hut</type></wpt>
<wpt lat="35.3778" lon="138.7408"><name>八合目</name><type>hut</type></wpt>
<wpt lat="35.3732" lon="138.7368"><name>本八合目 [下山道分岐]</name><type>escape</type></wpt>
<wpt lat="35.3697" lon="138.734"><name>九合目</name><type>wp</type></wpt>
<wpt lat="35.3672" lon="138.7332"><name>吉田口頂上</name><type>goal</type></wpt>
<trk><trkseg>
<trkpt lat="35.394159" lon="138.733268"><ele>2303.9</ele><time>2014-08-15T21:18:23Z</time></trkpt>
<trkpt lat="35.393847" lon="138.733509"><ele>2303.9</ele><time>2014-08-15T21:19:31Z</time></trkpt>
<trkpt lat="35.393586" lon="138.733696"><ele>2304.8</ele><time>2014-08-15T21:21:05Z</time></trkpt>
<trkpt lat="35.393178" lon="138.733887"><ele>2308.8</ele><time>2014-08-15T21:22:03Z</time></trkpt>
<trkpt lat="35.392833" lon="138.734231"><ele>2309.7</ele><time>2014-08-15T21:22:51Z</time></trkpt>
<trkpt lat="35.392480" lon="138.734551"><ele>2310.4</ele><time>2014-08-15T21:23:47Z</time></trkpt>
<trkpt lat="35.392373" lon="138.735072"><ele>2309.7</ele><time>2014-08-15T21:24:38Z</time></trkpt>
<trkpt lat="35.392122" lon="138.735486"><ele>2309.1</ele><time>2014-08-15T21:25:27Z</time></trkpt>
<trkpt lat="35.391915" lon="138.735913"><ele>2309.7</ele><time>2014-08-15T21:26:28Z</time></trkpt>
<trkpt lat="35.391672" lon="138.736354"><ele>2309.1</ele><time>2014-08-15T21:27:27Z</time></trkpt>
<trkpt lat="35.391485" lon="138.736854"><ele>2308.4</ele><time>2014-08-15T21:28:19Z</time></trkpt>
<trkpt lat="35.391343" lon="138.737375"><ele>2308.4</ele><time>2014-08-15T21:29:11Z</time></trkpt>
<trkpt lat="35.391172" lon="138.737884"><ele>2307.0</ele><time>2014-08-15T21:30:00Z</time></trkpt>
<trkpt lat="35.391028" lon="138.738314"><ele>2303.0</ele><time>2014-08-15T21:31:44Z</time></trkpt>
<trkpt lat="35.390888" lon="138.738836"><ele>2295.2</ele><time>2014-08-15T21:32:32Z</time></trkpt>
<trkpt lat="35.390737" lon="138.739354"><ele>2293.9</ele><time>2014-08-15T21:33:20Z</time></trkpt>
<trkpt lat="35.390608" lon="138.739882"><ele>2289.4</ele><time>2014-08-15T21:34:07Z</time></trkpt>
<trkpt lat="35.390434" lon="138.740384"><ele>2287.6</ele><time>2014-08-15T21:35:00Z</time></trkpt>
<trkpt lat="35.390457" lon="138.740929"><ele>2277.9</ele><time>2014-08-15T21:35:52Z</time></trkpt>
<trkpt lat="35.390346" lon="138.741439"><ele>2273.3</ele><time>2014-08-15T21:36:58Z</time></trkpt>
<trkpt lat="35.390294" lon="138.741708"><ele>2273.3</ele><time>2014-08-15T21:38:59Z</time></trkpt>
<trkpt lat="35.389972" lon="138.741921"><ele>2277.9</ele><time>2014-08-15T21:40:45Z</time></trkpt>
<trkpt lat="35.389591" lon="138.742150"><ele>2292.6</ele><time>2014-08-15T21:41:59Z</time></trkpt>
<trkpt lat="35.389160" lon="138.742283"><ele>2301.1</ele><time>2014-08-15T21:42:50Z</time></trkpt>
<trkpt lat="35.388747" lon="138.742441"><ele>2308.0</ele><time>2014-08-15T21:43:44Z</time></trkpt>
<trkpt lat="35.388393" lon="138.742774"><ele>2315.9</ele><time>2014-08-15T21:44:48Z</time></trkpt>
<trkpt lat="35.388069" lon="138.743121"><ele>2318.0</ele><time>2014-08-15T21:46:05Z</time></trkpt>
<trkpt lat="35.387705" lon="138.743422"><ele>2321.8</ele><time>2014-08-15T21:47:23Z</time></trkpt>
<trkpt lat="35.387341" lon="138.743732"><ele>2338.1</ele><time>2014-08-15T21:48:55Z</time></trkpt>
<trkpt lat="35.387048" lon="138.743983"><ele>2339.3</ele><time>2014-08-15T21:50:46Z</time></trkpt>
<trkpt lat="35.386698" lon="138.744304"><ele>2345.3</ele><time>2014-08-15T21:51:58Z</time></trkpt>
<trkpt lat="35.386382" lon="138.744687"><ele>2352.2</ele><time>2014-08-15T21:53:16Z</time></trkpt>
<trkpt lat="35.386026" lon="138.745001"><ele>2355.8</ele><time>2014-08-15T21:54:36Z</time></trkpt>
<trkpt lat="35.385925" lon="138.745475"><ele>2374.0</ele><time>2014-08-15T21:56:20Z</time></trkpt>
<trkpt lat="35.385772" lon="138.745921"><ele>2377.6</ele><time>2014-08-15T21:58:27Z</time></trkpt>
<trkpt lat="35.385632" lon="138.746379"><ele>2387.0</ele><time>2014-08-15T21:59:23Z</time></trkpt>
<trkpt lat="35.385491" lon="138.746839"><ele>2387.2</ele><time>2014-08-15T22:00:34Z</time></trkpt>
<trkpt lat="35.385323" lon="138.747277"><ele>2392.5</ele><time>2014-08-15T22:02:39Z</time></trkpt>
<trkpt lat="35.385151" lon="138.747593"><ele>2392.7</ele><time>2014-08-15T22:04:49Z</time></trkpt>
<trkpt lat="35.385083" lon="138.747705"><ele>2401.7</ele><time>2014-08-15T22:11:48Z</time></trkpt>
<trkpt lat="35.385061" lon="138.747470"><ele>2401.7</ele><time>2014-08-15T22:17:07Z</time></trkpt>
<trkpt lat="35.384864" lon="138.746990"><ele>2407.8</ele><time>2014-08-15T22:18:54Z</time></trkpt>
<trkpt lat="35.384605" lon="138.746972"><ele>2426.6</ele><time>2014-08-15T22:20:40Z</time></trkpt>
<trkpt lat="35.384356" lon="138.747173"><ele>2436.3</ele><time>2014-08-15T22:22:22Z</time></trkpt>
<trkpt lat="35.383987" lon="138.747151"><ele>2451.7</ele><time>2014-08-15T22:24:37Z</time></trkpt>
<trkpt lat="35.383554" lon="138.747216"><ele>2456.8</ele><time>2014-08-15T22:26:08Z</time></trkpt>
<trkpt lat="35.383108" lon="138.747262"><ele>2469.2</ele><time>2014-08-15T22:27:43Z</time></trkpt>
<trkpt lat="35.383119" lon="138.746907"><ele>2478.8</ele><time>2014-08-15T22:29:10Z</time></trkpt>
<trkpt lat="35.382845" lon="138.746882"><ele>2489.0</ele><time>2014-08-15T22:30:40Z</time></trkpt>
<trkpt lat="35.382743" lon="138.746516"><ele>2499.2</ele><time>2014-08-15T22:32:17Z</time></trkpt>
<trkpt lat="35.382431" lon="138.746672"><ele>2509.9</ele><time>2014-08-15T22:33:56Z</time></trkpt>
<trkpt lat="35.382033" lon="138.746885"><ele>2526.4</ele><time>2014-08-15T22:35:52Z</time></trkpt>
<trkpt lat="35.381848" lon="138.746636"><ele>2534.2</ele><time>2014-08-15T22:37:45Z</time></trkpt>
<trkpt lat="35.381724" lon="138.746387"><ele>2545.7</ele><time>2014-08-15T22:39:49Z</time></trkpt>
<trkpt lat="35.381384" lon="138.746353"><ele>2556.0</ele><time>2014-08-15T22:42:01Z</time></trkpt>
<trkpt lat="35.381374" lon="138.745937"><ele>2574.5</ele><time>2014-08-15T22:43:57Z</time></trkpt>
<trkpt lat="35.380964" lon="138.746056"><ele>2575.7</ele><time>2014-08-15T22:45:53Z</time></trkpt>
<trkpt lat="35.381141" lon="138.745569"><ele>2594.1</ele><time>2014-08-15T22:47:45Z</time></trkpt>
<trkpt lat="35.380705" lon="138.745547"><ele>2605.1</ele><time>2014-08-15T22:50:08Z</time></trkpt>
<trkpt lat="35.380593" lon="138.745189"><ele>2622.1</ele><time>2014-08-15T22:52:16Z</time></trkpt>
<trkpt lat="35.380169" lon="138.745298"><ele>2628.4</ele><time>2014-08-15T22:54:16Z</time></trkpt>
<trkpt lat="35.380026" lon="138.745117"><ele>2639.2</ele><time>2014-08-15T22:56:22Z</time></trkpt>
<trkpt lat="35.379773" lon="138.744956"><ele>2663.2</ele><time>2014-08-15T22:59:00Z</time></trkpt>
<trkpt lat="35.379759" lon="138.744613"><ele>2673.1</ele><time>2014-08-15T23:00:57Z</time></trkpt>
<trkpt lat="35.379626" lon="138.744398"><ele>2673.1</ele><time>2014-08-15T23:03:19Z</time></trkpt>
<trkpt lat="35.379316" lon="138.744300"><ele>2681.1</ele><time>2014-08-15T23:05:31Z</time></trkpt>
<trkpt lat="35.379007" lon="138.744532"><ele>2690.1</ele><time>2014-08-15T23:07:52Z</time></trkpt>
<trkpt lat="35.378985" lon="138.744515"><ele>2690.1</ele><time>2014-08-15T23:13:13Z</time></trkpt>
<trkpt lat="35.378968" lon="138.744529"><ele>2704.6</ele><time>2014-08-15T23:17:10Z</time></trkpt>
<trkpt lat="35.378704" lon="138.744587"><ele>2704.6</ele><time>2014-08-15T23:19:45Z</time></trkpt>
<trkpt lat="35.378720" lon="138.744316"><ele>2704.6</ele><time>2014-08-15T23:22:56Z</time></trkpt>
<trkpt lat="35.378778" lon="138.744135"><ele>2712.1</ele><time>2014-08-15T23:25:14Z</time></trkpt>
<trkpt lat="35.378556" lon="138.744023"><ele>2727.4</ele><time>2014-08-15T23:27:02Z</time></trkpt>
<trkpt lat="35.378419" lon="138.743945"><ele>2727.4</ele><time>2014-08-15T23:29:07Z</time></trkpt>
<trkpt lat="35.378240" lon="138.743574"><ele>2757.2</ele><time>2014-08-15T23:31:47Z</time></trkpt>
<trkpt lat="35.377887" lon="138.743782"><ele>2767.1</ele><time>2014-08-15T23:33:57Z</time></trkpt>
<trkpt lat="35.377736" lon="138.743618"><ele>2780.9</ele><time>2014-08-15T23:36:38Z</time></trkpt>
<trkpt lat="35.377470" lon="138.743447"><ele>2808.9</ele><time>2014-08-15T23:38:35Z</time></trkpt>
<trkpt lat="35.377483" lon="138.743287"><ele>2808.9</ele><time>2014-08-15T23:40:51Z</time></trkpt>
<trkpt lat="35.377283" lon="138.742958"><ele>2834.3</ele><time>2014-08-15T23:42:37Z</time></trkpt>
<trkpt lat="35.377138" lon="138.743006"><ele>2834.3</ele><time>2014-08-15T23:45:55Z</time></trkpt>
<trkpt lat="35.376958" lon="138.743002"><ele>2850.8</ele><time>2014-08-15T23:49:29Z</time></trkpt>
<trkpt lat="35.376785" lon="138.742816"><ele>2854.7</ele><time>2014-08-15T23:51:48Z</time></trkpt>
<trkpt lat="35.376511" lon="138.742859"><ele>2871.2</ele><time>2014-08-15T23:53:53Z</time></trkpt>
<trkpt lat="35.376186" lon="138.742809"><ele>2886.6</ele><time>2014-08-15T23:56:16Z</time></trkpt>
<trkpt lat="35.375924" lon="138.742996"><ele>2897.8</ele><time>2014-08-15T23:59:07Z</time></trkpt>
<trkpt lat="35.375639" lon="138.742907"><ele>2911.2</ele><time>2014-08-16T00:01:19Z</time></trkpt>
<trkpt lat="35.375242" lon="138.742968"><ele>2935.3</ele><time>2014-08-16T00:03:23Z</time></trkpt>
<trkpt lat="35.375114" lon="138.742689"><ele>2948.8</ele><time>2014-08-16T00:06:24Z</time></trkpt>
<trkpt lat="35.374840" lon="138.742468"><ele>2963.3</ele><time>2014-08-16T00:09:13Z</time></trkpt>
<trkpt lat="35.374528" lon="138.742351"><ele>2982.5</ele><time>2014-08-16T00:11:42Z</time></trkpt>
<trkpt lat="35.374348" lon="138.741967"><ele>3006.0</ele><time>2014-08-16T00:14:39Z</time></trkpt>
<trkpt lat="35.374317" lon="138.741777"><ele>3013.7</ele><time>2014-08-16T00:19:23Z</time></trkpt>
<trkpt lat="35.374316" lon="138.741776"><ele>3013.7</ele><time>2014-08-16T00:25:37Z</time></trkpt>
<trkpt lat="35.374339" lon="138.741769"><ele>3013.7</ele><time>2014-08-16T00:32:47Z</time></trkpt>
<trkpt lat="35.374115" lon="138.741486"><ele>3036.6</ele><time>2014-08-16T00:35:33Z</time></trkpt>
<trkpt lat="35.373852" lon="138.741429"><ele>3051.7</ele><time>2014-08-16T00:38:04Z</time></trkpt>
<trkpt lat="35.373721" lon="138.741041"><ele>3056.8</ele><time>2014-08-16T00:40:38Z</time></trkpt>
<trkpt lat="35.373350" lon="138.741103"><ele>3086.5</ele><time>2014-08-16T00:42:47Z</time></trkpt>
<trkpt lat="35.373094" lon="138.741016"><ele>3097.7</ele><time>2014-08-16T00:44:39Z</time></trkpt>
<trkpt lat="35.372922" lon="138.740885"><ele>3097.7</ele><time>2014-08-16T00:46:37Z</time></trkpt>
<trkpt lat="35.372955" lon="138.740350"><ele>3117.3</ele><time>2014-08-16T00:48:59Z</time></trkpt>
<trkpt lat="35.372654" lon="138.740315"><ele>3131.8</ele><time>2014-08-16T00:51:04Z</time></trkpt>
<trkpt lat="35.372500" lon="138.740152"><ele>3153.0</ele><time>2014-08-16T00:53:17Z</time></trkpt>
<trkpt lat="35.372328" lon="138.739942"><ele>3153.0</ele><time>2014-08-16T00:55:13Z</time></trkpt>
<trkpt lat="35.372178" lon="138.739800"><ele>3174.0</ele><time>2014-08-16T00:57:52Z</time></trkpt>
<trkpt lat="35.371963" lon="138.739765"><ele>3191.6</ele><time>2014-08-16T00:59:39Z</time></trkpt>
<trkpt lat="35.371567" lon="138.739983"><ele>3191.6</ele><time>2014-08-16T01:01:58Z</time></trkpt>
<trkpt lat="35.371721" lon="138.739644"><ele>3199.0</ele><time>2014-08-16T01:04:08Z</time></trkpt>
<trkpt lat="35.371619" lon="138.739139"><ele>3212.6</ele><time>2014-08-16T01:05:34Z</time></trkpt>
<trkpt lat="35.371354" lon="138.739173"><ele>3231.0</ele><time>2014-08-16T01:07:38Z</time></trkpt>
<trkpt lat="35.371285" lon="138.738667"><ele>3237.5</ele><time>2014-08-16T01:09:34Z</time></trkpt>
<trkpt lat="35.371073" lon="138.739014"><ele>3248.4</ele><time>2014-08-16T01:12:05Z</time></trkpt>
<trkpt lat="35.370997" lon="138.739284"><ele>3250.7</ele><time>2014-08-16T01:14:12Z</time></trkpt>
<trkpt lat="35.370709" lon="138.739290"><ele>3265.7</ele><time>2014-08-16T01:16:14Z</time></trkpt>
<trkpt lat="35.370516" lon="138.739058"><ele>3288.6</ele><time>2014-08-16T01:18:18Z</time></trkpt>
<trkpt lat="35.370393" lon="138.738965"><ele>3288.6</ele><time>2014-08-16T01:20:45Z</time></trkpt>
<trkpt lat="35.370055" lon="138.739243"><ele>3296.3</ele><time>2014-08-16T01:23:09Z</time></trkpt>
<trkpt lat="35.370059" lon="138.738778"><ele>3309.3</ele><time>2014-08-16T01:25:06Z</time></trkpt>
<trkpt lat="35.369796" lon="138.738815"><ele>3320.1</ele><time>2014-08-16T01:27:26Z</time></trkpt>
<trkpt lat="35.369736" lon="138.738573"><ele>3325.6</ele><time>2014-08-16T01:31:06Z</time></trkpt>
<trkpt lat="35.369703" lon="138.738609"><ele>3341.2</ele><time>2014-08-16T01:37:22Z</time></trkpt>
<trkpt lat="35.369593" lon="138.738603"><ele>3341.2</ele><time>2014-08-16T01:42:52Z</time></trkpt>
<trkpt lat="35.369356" lon="138.739007"><ele>3357.4</ele><time>2014-08-16T01:44:57Z</time></trkpt>
<trkpt lat="35.369225" lon="138.738999"><ele>3357.4</ele><time>2014-08-16T01:47:20Z</time></trkpt>
<trkpt lat="35.369243" lon="138.738772"><ele>3361.7</ele><time>2014-08-16T01:49:58Z</time></trkpt>
<trkpt lat="35.368990" lon="138.738807"><ele>3373.1</ele><time>2014-08-16T01:52:04Z</time></trkpt>
<trkpt lat="35.368943" lon="138.738454"><ele>3381.7</ele><time>2014-08-16T01:53:49Z</time></trkpt>
<trkpt lat="35.368740" lon="138.738293"><ele>3404.2</ele><time>2014-08-16T01:55:32Z</time></trkpt>
<trkpt lat="35.368447" lon="138.738112"><ele>3409.0</ele><time>2014-08-16T01:57:29Z</time></trkpt>
<trkpt lat="35.368403" lon="138.737853"><ele>3427.0</ele><time>2014-08-16T01:59:25Z</time></trkpt>
<trkpt lat="35.368287" lon="138.737633"><ele>3445.8</ele><time>2014-08-16T02:01:20Z</time></trkpt>
<trkpt lat="35.368193" lon="138.737444"><ele>3445.8</ele><time>2014-08-16T02:03:20Z</time></trkpt>
<trkpt lat="35.367824" lon="138.737321"><ele>3447.7</ele><time>2014-08-16T02:05:19Z</time></trkpt>
<trkpt lat="35.367848" lon="138.737412"><ele>3463.5</ele><time>2014-08-16T02:11:32Z</time></trkpt>
<trkpt lat="35.367884" lon="138.737397"><ele>3463.5</ele><time>2014-08-16T02:19:54Z</time></trkpt>
<trkpt lat="35.367751" lon="138.737296"><ele>3465.1</ele><time>2014-08-16T02:23:18Z</time></trkpt>
<trkpt lat="35.368005" lon="138.737039"><ele>3478.9</ele><time>2014-08-16T02:25:07Z</time></trkpt>
<trkpt lat="35.367937" lon="138.736820"><ele>3478.9</ele><time>2014-08-16T02:26:54Z</time></trkpt>
<trkpt lat="35.367806" lon="138.736595"><ele>3486.6</ele><time>2014-08-16T02:28:50Z</time></trkpt>
<trkpt lat="35.367658" lon="138.736348"><ele>3509.3</ele><time>2014-08-16T02:30:59Z</time></trkpt>
<trkpt lat="35.367488" lon="138.736065"><ele>3517.3</ele><time>2014-08-16T02:32:42Z</time></trkpt>
<trkpt lat="35.367359" lon="138.735880"><ele>3529.4</ele><time>2014-08-16T02:34:54Z</time></trkpt>
<trkpt lat="35.367268" lon="138.735609"><ele>3539.0</ele><time>2014-08-16T02:36:41Z</time></trkpt>
<trkpt lat="35.367186" lon="138.735363"><ele>3551.0</ele><time>2014-08-16T02:38:21Z</time></trkpt>
<trkpt lat="35.367088" lon="138.735170"><ele>3562.6</ele><time>2014-08-16T02:40:23Z</time></trkpt>
<trkpt lat="35.366874" lon="138.735061"><ele>3572.3</ele><time>2014-08-16T02:43:09Z</time></trkpt>
<trkpt lat="35.366657" lon="138.734843"><ele>3587.3</ele><time>2014-08-16T02:45:17Z</time></trkpt>
<trkpt lat="35.366570" lon="138.734657"><ele>3614.5</ele><time>2014-08-16T02:49:01Z</time></trkpt>
<trkpt lat="35.366534" lon="138.734403"><ele>3614.5</ele><time>2014-08-16T02:50:56Z</time></trkpt>
<trkpt lat="35.366469" lon="138.734131"><ele>3627.6</ele><time>2014-08-16T02:52:54Z</time></trkpt>
</trkseg></trk></gpx>
