<?xml version="1.0" encoding="UTF-8"?>
<gpx version="1.1" creator="osm_traces.py" xmlns="http://www.topografix.com/GPX/1/1">
<wpt lat="35.6323" lon="139.2699"><name>高尾山口駅</name><type>start</type></wpt>
<wpt lat="35.6323" lon="139.2699"><name>高尾山口駅</name><type>goal</type></wpt>
<trk><trkseg>
<trkpt lat="35.632397" lon="139.270707"><ele>211.6</ele><time>2019-07-09T01:08:02Z</time></trkpt>
<trkpt lat="35.632298" lon="139.270643"><ele>213.0</ele><time>2019-07-09T01:08:10Z</time></trkpt>
<trkpt lat="35.632179" lon="139.270323"><ele>176.1</ele><time>2019-07-09T01:08:27Z</time></trkpt>
<trkpt lat="35.631926" lon="139.270131"><ele>175.0</ele><time>2019-07-09T01:08:52Z</time></trkpt>
<trkpt lat="35.631766" lon="139.270016"><ele>175.5</ele><time>2019-07-09T01:09:06Z</time></trkpt>
<trkpt lat="35.631590" lon="139.270067"><ele>176.4</ele><time>2019-07-09T01:09:26Z</time></trkpt>
<trkpt lat="35.631299" lon="139.269773"><ele>177.2</ele><time>2019-07-09T01:09:59Z</time></trkpt>
<trkpt lat="35.630944" lon="139.269632"><ele>177.8</ele><time>2019-07-09T01:10:24Z</time></trkpt>
<trkpt lat="35.630982" lon="139.269862"><ele>178.9</ele><time>2019-07-09T01:11:11Z</time></trkpt>
<trkpt lat="35.631258" lon="139.270157"><ele>181.0</ele><time>2019-07-09T01:11:40Z</time></trkpt>
<trkpt lat="35.631069" lon="139.270208"><ele>182.2</ele><time>2019-07-09T01:13:28Z</time></trkpt>
<trkpt lat="35.630867" lon="139.270451"><ele>188.3</ele><time>2019-07-09T01:14:00Z</time></trkpt>
<trkpt lat="35.630688" lon="139.270502"><ele>194.2</ele><time>2019-07-09T01:14:30Z</time></trkpt>
<trkpt lat="35.630445" lon="139.270733"><ele>200.9</ele><time>2019-07-09T01:15:03Z</time></trkpt>
<trkpt lat="35.630378" lon="139.271002"><ele>205.3</ele><time>2019-07-09T01:15:27Z</time></trkpt>
<trkpt lat="35.630288" lon="139.271027"><ele>209.6</ele><time>2019-07-09T01:15:48Z</time></trkpt>
<trkpt lat="35.630240" lon="139.271168"><ele>212.3</ele><time>2019-07-09T01:16:01Z</time></trkpt>
<trkpt lat="35.630227" lon="139.271398"><ele>217.6</ele><time>2019-07-09T01:16:31Z</time></trkpt>
<trkpt lat="35.630138" lon="139.271450"><ele>220.3</ele><time>2019-07-09T01:16:46Z</time></trkpt>
<trkpt lat="35.630042" lon="139.271795"><ele>228.2</ele><time>2019-07-09T01:17:25Z</time></trkpt>
<trkpt lat="35.629974" lon="139.271872"><ele>232.7</ele><time>2019-07-09T01:17:46Z</time></trkpt>
<trkpt lat="35.629882" lon="139.271872"><ele>235.9</ele><time>2019-07-09T01:18:03Z</time></trkpt>
<trkpt lat="35.629629" lon="139.272435"><ele>248.4</ele><time>2019-07-09T01:19:07Z</time></trkpt>
<trkpt lat="35.629354" lon="139.272563"><ele>261.9</ele><time>2019-07-09T01:20:10Z</time></trkpt>
<trkpt lat="35.629254" lon="139.272755"><ele>267.9</ele><time>2019-07-09T01:21:06Z</time></trkpt>
<trkpt lat="35.629254" lon="139.272730"><ele>267.6</ele><time>2019-07-09T01:21:15Z</time></trkpt>
<trkpt lat="35.629098" lon="139.272666"><ele>271.7</ele><time>2019-07-09T01:21:56Z</time></trkpt>
<trkpt lat="35.629062" lon="139.272563"><ele>275.3</ele><time>2019-07-09T01:22:10Z</time></trkpt>
<trkpt lat="35.628925" lon="139.272384"><ele>280.9</ele><time>2019-07-09T01:22:35Z</time></trkpt>
<trkpt lat="35.628886" lon="139.272243"><ele>284.3</ele><time>2019-07-09T01:22:56Z</time></trkpt>
<trkpt lat="35.628781" lon="139.272090"><ele>289.9</ele><time>2019-07-09T01:23:21Z</time></trkpt>
<trkpt lat="35.628560" lon="139.271936"><ele>291.6</ele><time>2019-07-09T01:23:54Z</time></trkpt>
<trkpt lat="35.628086" lon="139.271539"><ele>288.0</ele><time>2019-07-09T01:24:32Z</time></trkpt>
<trkpt lat="35.627773" lon="139.271360"><ele>286.0</ele><time>2019-07-09T01:25:45Z</time></trkpt>
<trkpt lat="35.627757" lon="139.271347"><ele>287.1</ele><time>2019-07-09T01:26:10Z</time></trkpt>
<trkpt lat="35.627712" lon="139.271334"><ele>289.0</ele><time>2019-07-09T01:29:36Z</time></trkpt>
<trkpt lat="35.627322" lon="139.271270"><ele>285.9</ele><time>2019-07-09T01:30:04Z</time></trkpt>
<trkpt lat="35.627059" lon="139.271091"><ele>284.6</ele><time>2019-07-09T01:30:23Z</time></trkpt>
<trkpt lat="35.626838" lon="139.271091"><ele>289.3</ele><time>2019-07-09T01:30:48Z</time></trkpt>
<trkpt lat="35.626723" lon="139.271014"><ele>293.8</ele><time>2019-07-09T01:31:04Z</time></trkpt>
<trkpt lat="35.626701" lon="139.271002"><ele>292.2</ele><time>2019-07-09T01:31:17Z</time></trkpt>
<trkpt lat="35.626662" lon="139.270976"><ele>293.8</ele><time>2019-07-09T01:33:19Z</time></trkpt>
<trkpt lat="35.626630" lon="139.271002"><ele>293.4</ele><time>2019-07-09T01:33:22Z</time></trkpt>
<trkpt lat="35.626518" lon="139.270925"><ele>292.0</ele><time>2019-07-09T01:33:31Z</time></trkpt>
<trkpt lat="35.626381" lon="139.270694"><ele>293.9</ele><time>2019-07-09T01:33:50Z</time></trkpt>
<trkpt lat="35.626054" lon="139.270707"><ele>300.2</ele><time>2019-07-09T01:34:37Z</time></trkpt>
<trkpt lat="35.625923" lon="139.270605"><ele>298.1</ele><time>2019-07-09T01:34:59Z</time></trkpt>
<trkpt lat="35.625949" lon="139.270579"><ele>298.2</ele><time>2019-07-09T01:35:04Z</time></trkpt>
<trkpt lat="35.625984" lon="139.270618"><ele>298.4</ele><time>2019-07-09T01:35:18Z</time></trkpt>
<trkpt lat="35.626003" lon="139.270630"><ele>299.0</ele><time>2019-07-09T01:35:27Z</time></trkpt>
<trkpt lat="35.625946" lon="139.270630"><ele>299.6</ele><time>2019-07-09T01:37:59Z</time></trkpt>
<trkpt lat="35.625750" lon="139.270579"><ele>300.9</ele><time>2019-07-09T01:38:14Z</time></trkpt>
<trkpt lat="35.625226" lon="139.270528"><ele>310.5</ele><time>2019-07-09T01:39:12Z</time></trkpt>
<trkpt lat="35.625290" lon="139.270579"><ele>313.4</ele><time>2019-07-09T01:39:41Z</time></trkpt>
<trkpt lat="35.625264" lon="139.270630"><ele>313.1</ele><time>2019-07-09T01:39:53Z</time></trkpt>
<trkpt lat="35.625270" lon="139.270502"><ele>312.4</ele><time>2019-07-09T01:40:11Z</time></trkpt>
<trkpt lat="35.625229" lon="139.270490"><ele>312.2</ele><time>2019-07-09T01:40:15Z</time></trkpt>
<trkpt lat="35.625146" lon="139.270541"><ele>313.1</ele><time>2019-07-09T01:42:56Z</time></trkpt>
<trkpt lat="35.624973" lon="139.270310"><ele>310.8</ele><time>2019-07-09T01:43:12Z</time></trkpt>
<trkpt lat="35.624909" lon="139.270016"><ele>319.9</ele><time>2019-07-09T01:43:51Z</time></trkpt>
<trkpt lat="35.624819" lon="139.270054"><ele>321.1</ele><time>2019-07-09T01:43:58Z</time></trkpt>
<trkpt lat="35.624714" lon="139.270016"><ele>323.9</ele><time>2019-07-09T01:44:13Z</time></trkpt>
<trkpt lat="35.624672" lon="139.269824"><ele>323.3</ele><time>2019-07-09T01:44:27Z</time></trkpt>
<trkpt lat="35.624618" lon="139.269235"><ele>320.5</ele><time>2019-07-09T01:45:02Z</time></trkpt>
<trkpt lat="35.624438" lon="139.268966"><ele>317.5</ele><time>2019-07-09T01:45:30Z</time></trkpt>
<trkpt lat="35.624323" lon="139.268890"><ele>323.1</ele><time>2019-07-09T01:45:52Z</time></trkpt>
<trkpt lat="35.623766" lon="139.269107"><ele>323.6</ele><time>2019-07-09T01:47:13Z</time></trkpt>
<trkpt lat="35.623542" lon="139.269120"><ele>330.0</ele><time>2019-07-09T01:47:41Z</time></trkpt>
<trkpt lat="35.623402" lon="139.269235"><ele>325.4</ele><time>2019-07-09T01:47:59Z</time></trkpt>
<trkpt lat="35.623200" lon="139.269568"><ele>322.3</ele><time>2019-07-09T01:48:12Z</time></trkpt>
<trkpt lat="35.623011" lon="139.269517"><ele>314.4</ele><time>2019-07-09T01:48:55Z</time></trkpt>
<trkpt lat="35.623011" lon="139.269568"><ele>314.8</ele><time>2019-07-09T01:49:49Z</time></trkpt>
<trkpt lat="35.622832" lon="139.269491"><ele>309.1</ele><time>2019-07-09T01:50:25Z</time></trkpt>
<trkpt lat="35.622336" lon="139.269517"><ele>298.4</ele><time>2019-07-09T01:51:10Z</time></trkpt>
<trkpt lat="35.622134" lon="139.269517"><ele>300.6</ele><time>2019-07-09T01:51:25Z</time></trkpt>
<trkpt lat="35.621885" lon="139.269965"><ele>308.0</ele><time>2019-07-09T01:52:14Z</time></trkpt>
<trkpt lat="35.621197" lon="139.270374"><ele>309.5</ele><time>2019-07-09T01:53:47Z</time></trkpt>
<trkpt lat="35.621085" lon="139.270374"><ele>312.7</ele><time>2019-07-09T01:54:02Z</time></trkpt>
<trkpt lat="35.620941" lon="139.270323"><ele>315.3</ele><time>2019-07-09T01:54:21Z</time></trkpt>
<trkpt lat="35.620608" lon="139.270029"><ele>323.0</ele><time>2019-07-09T01:55:19Z</time></trkpt>
<trkpt lat="35.620515" lon="139.270003"><ele>317.2</ele><time>2019-07-09T01:56:20Z</time></trkpt>
<trkpt lat="35.620378" lon="139.269901"><ele>312.7</ele><time>2019-07-09T01:59:32Z</time></trkpt>
<trkpt lat="35.620125" lon="139.269901"><ele>310.8</ele><time>2019-07-09T01:59:53Z</time></trkpt>
<trkpt lat="35.619834" lon="139.269862"><ele>314.5</ele><time>2019-07-09T02:00:17Z</time></trkpt>
<trkpt lat="35.619763" lon="139.269542"><ele>321.9</ele><time>2019-07-09T02:00:56Z</time></trkpt>
<trkpt lat="35.619613" lon="139.269338"><ele>327.9</ele><time>2019-07-09T02:01:28Z</time></trkpt>
<trkpt lat="35.619504" lon="139.269043"><ele>335.9</ele><time>2019-07-09T02:02:05Z</time></trkpt>
<trkpt lat="35.619139" lon="139.268890"><ele>332.8</ele><time>2019-07-09T02:03:08Z</time></trkpt>
<trkpt lat="35.619056" lon="139.268902"><ele>331.8</ele><time>2019-07-09T02:03:11Z</time></trkpt>
<trkpt lat="35.618906" lon="139.268646"><ele>329.0</ele><time>2019-07-09T02:03:24Z</time></trkpt>
<trkpt lat="35.618774" lon="139.268698"><ele>332.1</ele><time>2019-07-09T02:03:39Z</time></trkpt>
<trkpt lat="35.618758" lon="139.268646"><ele>333.0</ele><time>2019-07-09T02:03:49Z</time></trkpt>
<trkpt lat="35.618598" lon="139.268749"><ele>333.8</ele><time>2019-07-09T02:05:31Z</time></trkpt>
<trkpt lat="35.618211" lon="139.269210"><ele>332.1</ele><time>2019-07-09T02:06:07Z</time></trkpt>
<trkpt lat="35.618122" lon="139.269376"><ele>330.9</ele><time>2019-07-09T02:06:15Z</time></trkpt>
<trkpt lat="35.618080" lon="139.269491"><ele>331.0</ele><time>2019-07-09T02:06:23Z</time></trkpt>
<trkpt lat="35.618077" lon="139.269632"><ele>333.3</ele><time>2019-07-09T02:06:34Z</time></trkpt>
<trkpt lat="35.618006" lon="139.269709"><ele>334.9</ele><time>2019-07-09T02:06:41Z</time></trkpt>
<trkpt lat="35.618006" lon="139.269914"><ele>339.5</ele><time>2019-07-09T02:07:01Z</time></trkpt>
<trkpt lat="35.617203" lon="139.270170"><ele>339.0</ele><time>2019-07-09T02:07:57Z</time></trkpt>
<trkpt lat="35.617181" lon="139.270234"><ele>340.1</ele><time>2019-07-09T02:08:02Z</time></trkpt>
<trkpt lat="35.617168" lon="139.270259"><ele>340.4</ele><time>2019-07-09T02:08:04Z</time></trkpt>
<trkpt lat="35.617130" lon="139.270234"><ele>343.3</ele><time>2019-07-09T02:10:23Z</time></trkpt>
<trkpt lat="35.617142" lon="139.270259"><ele>344.0</ele><time>2019-07-09T02:10:28Z</time></trkpt>
<trkpt lat="35.617245" lon="139.270490"><ele>343.0</ele><time>2019-07-09T02:10:53Z</time></trkpt>
<trkpt lat="35.617290" lon="139.270720"><ele>342.0</ele><time>2019-07-09T02:11:04Z</time></trkpt>
<trkpt lat="35.617251" lon="139.271002"><ele>340.4</ele><time>2019-07-09T02:12:41Z</time></trkpt>
<trkpt lat="35.617178" lon="139.271104"><ele>339.4</ele><time>2019-07-09T02:12:44Z</time></trkpt>
<trkpt lat="35.616800" lon="139.271296"><ele>340.5</ele><time>2019-07-09T02:13:13Z</time></trkpt>
<trkpt lat="35.617014" lon="139.271936"><ele>334.4</ele><time>2019-07-09T02:14:04Z</time></trkpt>
<trkpt lat="35.617101" lon="139.271987"><ele>330.0</ele><time>2019-07-09T02:14:19Z</time></trkpt>
<trkpt lat="35.617158" lon="139.272230"><ele>325.7</ele><time>2019-07-09T02:14:32Z</time></trkpt>
<trkpt lat="35.617238" lon="139.272294"><ele>325.6</ele><time>2019-07-09T02:14:37Z</time></trkpt>
<trkpt lat="35.617501" lon="139.272410"><ele>330.5</ele><time>2019-07-09T02:15:06Z</time></trkpt>
<trkpt lat="35.617683" lon="139.272691"><ele>327.4</ele><time>2019-07-09T02:15:22Z</time></trkpt>
<trkpt lat="35.617837" lon="139.272832"><ele>321.2</ele><time>2019-07-09T02:15:37Z</time></trkpt>
<trkpt lat="35.618045" lon="139.272845"><ele>316.9</ele><time>2019-07-09T02:15:48Z</time></trkpt>
<trkpt lat="35.618192" lon="139.272986"><ele>314.6</ele><time>2019-07-09T02:16:03Z</time></trkpt>
<trkpt lat="35.618285" lon="139.272986"><ele>313.7</ele><time>2019-07-09T02:16:13Z</time></trkpt>
<trkpt lat="35.618320" lon="139.273088"><ele>309.8</ele><time>2019-07-09T02:16:29Z</time></trkpt>
<trkpt lat="35.618573" lon="139.273267"><ele>299.9</ele><time>2019-07-09T02:16:55Z</time></trkpt>
<trkpt lat="35.618611" lon="139.273382"><ele>299.2</ele><time>2019-07-09T02:17:05Z</time></trkpt>
<trkpt lat="35.619037" lon="139.273088"><ele>298.0</ele><time>2019-07-09T02:17:37Z</time></trkpt>
<trkpt lat="35.619114" lon="139.273152"><ele>299.0</ele><time>2019-07-09T02:17:47Z</time></trkpt>
<trkpt lat="35.619350" lon="139.273114"><ele>298.1</ele><time>2019-07-09T02:18:41Z</time></trkpt>
<trkpt lat="35.619443" lon="139.273114"><ele>299.6</ele><time>2019-07-09T02:18:51Z</time></trkpt>
<trkpt lat="35.619779" lon="139.273408"><ele>306.2</ele><time>2019-07-09T02:19:41Z</time></trkpt>
<trkpt lat="35.619846" lon="139.273382"><ele>306.0</ele><time>2019-07-09T02:20:03Z</time></trkpt>
<trkpt lat="35.619894" lon="139.273446"><ele>305.2</ele><time>2019-07-09T02:20:22Z</time></trkpt>
<trkpt lat="35.619914" lon="139.273395"><ele>304.7</ele><time>2019-07-09T02:22:58Z</time></trkpt>
<trkpt lat="35.620109" lon="139.273421"><ele>300.4</ele><time>2019-07-09T02:23:20Z</time></trkpt>
<trkpt lat="35.620538" lon="139.273702"><ele>303.6</ele><time>2019-07-09T02:24:09Z</time></trkpt>
<trkpt lat="35.620733" lon="139.273587"><ele>302.6</ele><time>2019-07-09T02:24:28Z</time></trkpt>
<trkpt lat="35.620832" lon="139.273574"><ele>301.1</ele><time>2019-07-09T02:24:34Z</time></trkpt>
<trkpt lat="35.621299" lon="139.273715"><ele>302.9</ele><time>2019-07-09T02:25:21Z</time></trkpt>
<trkpt lat="35.621453" lon="139.273869"><ele>297.8</ele><time>2019-07-09T02:25:41Z</time></trkpt>
<trkpt lat="35.621818" lon="139.274061"><ele>288.8</ele><time>2019-07-09T02:26:05Z</time></trkpt>
<trkpt lat="35.622966" lon="139.274189"><ele>294.3</ele><time>2019-07-09T02:27:47Z</time></trkpt>
<trkpt lat="35.623254" lon="139.274138"><ele>303.9</ele><time>2019-07-09T02:28:27Z</time></trkpt>
<trkpt lat="35.623382" lon="139.274445"><ele>308.6</ele><time>2019-07-09T02:29:08Z</time></trkpt>
<trkpt lat="35.623584" lon="139.274688"><ele>305.6</ele><time>2019-07-09T02:29:31Z</time></trkpt>
<trkpt lat="35.623866" lon="139.274752"><ele>301.4</ele><time>2019-07-09T02:29:53Z</time></trkpt>
<trkpt lat="35.623958" lon="139.274701"><ele>301.3</ele><time>2019-07-09T02:29:57Z</time></trkpt>
<trkpt lat="35.624058" lon="139.274714"><ele>300.7</ele><time>2019-07-09T02:30:01Z</time></trkpt>
<trkpt lat="35.624221" lon="139.274829"><ele>297.6</ele><time>2019-07-09T02:30:12Z</time></trkpt>
<trkpt lat="35.624419" lon="139.275110"><ele>292.2</ele><time>2019-07-09T02:30:33Z</time></trkpt>
<trkpt lat="35.624646" lon="139.275302"><ele>293.6</ele><time>2019-07-09T02:30:55Z</time></trkpt>
<trkpt lat="35.625011" lon="139.275469"><ele>286.7</ele><time>2019-07-09T02:31:25Z</time></trkpt>
<trkpt lat="35.625286" lon="139.275507"><ele>291.2</ele><time>2019-07-09T02:31:58Z</time></trkpt>
<trkpt lat="35.625283" lon="139.275456"><ele>292.0</ele><time>2019-07-09T02:32:51Z</time></trkpt>
<trkpt lat="35.625542" lon="139.275405"><ele>292.4</ele><time>2019-07-09T02:33:11Z</time></trkpt>
<trkpt lat="35.625680" lon="139.275315"><ele>291.1</ele><time>2019-07-09T02:33:16Z</time></trkpt>
<trkpt lat="35.626058" lon="139.275251"><ele>286.6</ele><time>2019-07-09T02:33:36Z</time></trkpt>
<trkpt lat="35.626384" lon="139.275341"><ele>291.2</ele><time>2019-07-09T02:33:58Z</time></trkpt>
<trkpt lat="35.626467" lon="139.275405"><ele>294.4</ele><time>2019-07-09T02:34:11Z</time></trkpt>
<trkpt lat="35.626733" lon="139.275379"><ele>298.4</ele><time>2019-07-09T02:34:30Z</time></trkpt>
<trkpt lat="35.626950" lon="139.275622"><ele>295.9</ele><time>2019-07-09T02:34:47Z</time></trkpt>
<trkpt lat="35.627174" lon="139.276301"><ele>290.3</ele><time>2019-07-09T02:35:21Z</time></trkpt>
<trkpt lat="35.627421" lon="139.276454"><ele>281.1</ele><time>2019-07-09T02:35:47Z</time></trkpt>
<trkpt lat="35.627718" lon="139.276762"><ele>273.9</ele><time>2019-07-09T02:36:10Z</time></trkpt>
<trkpt lat="35.627974" lon="139.277248"><ele>286.3</ele><time>2019-07-09T02:36:59Z</time></trkpt>
<trkpt lat="35.628202" lon="139.277389"><ele>288.6</ele><time>2019-07-09T02:37:22Z</time></trkpt>
<trkpt lat="35.628474" lon="139.277478"><ele>283.6</ele><time>2019-07-09T02:37:35Z</time></trkpt>
<trkpt lat="35.628547" lon="139.277555"><ele>281.4</ele><time>2019-07-09T02:37:41Z</time></trkpt>
<trkpt lat="35.628650" lon="139.277594"><ele>280.0</ele><time>2019-07-09T02:37:49Z</time></trkpt>
<trkpt lat="35.628739" lon="139.277670"><ele>281.9</ele><time>2019-07-09T02:38:01Z</time></trkpt>
<trkpt lat="35.629158" lon="139.277466"><ele>293.0</ele><time>2019-07-09T02:39:00Z</time></trkpt>
<trkpt lat="35.629162" lon="139.277414"><ele>293.0</ele><time>2019-07-09T02:39:18Z</time></trkpt>
<trkpt lat="35.629238" lon="139.277440"><ele>293.8</ele><time>2019-07-09T02:42:44Z</time></trkpt>
<trkpt lat="35.629382" lon="139.277414"><ele>294.5</ele><time>2019-07-09T02:43:03Z</time></trkpt>
<trkpt lat="35.629475" lon="139.277530"><ele>292.7</ele><time>2019-07-09T02:43:13Z</time></trkpt>
<trkpt lat="35.629779" lon="139.277683"><ele>288.9</ele><time>2019-07-09T02:43:24Z</time></trkpt>
<trkpt lat="35.629888" lon="139.277670"><ele>284.1</ele><time>2019-07-09T02:43:36Z</time></trkpt>
<trkpt lat="35.630077" lon="139.277568"><ele>278.9</ele><time>2019-07-09T02:43:50Z</time></trkpt>
<trkpt lat="35.630170" lon="139.277606"><ele>278.9</ele><time>2019-07-09T02:43:55Z</time></trkpt>
<trkpt lat="35.630192" lon="139.277722"><ele>278.7</ele><time>2019-07-09T02:44:01Z</time></trkpt>
<trkpt lat="35.630285" lon="139.277670"><ele>276.8</ele><time>2019-07-09T02:44:11Z</time></trkpt>
<trkpt lat="35.630557" lon="139.277722"><ele>263.5</ele><time>2019-07-09T02:44:59Z</time></trkpt>
<trkpt lat="35.630765" lon="139.277862"><ele>256.6</ele><time>2019-07-09T02:46:03Z</time></trkpt>
<trkpt lat="35.630762" lon="139.277990"><ele>256.4</ele><time>2019-07-09T02:46:18Z</time></trkpt>
<trkpt lat="35.630864" lon="139.278003"><ele>256.2</ele><time>2019-07-09T02:46:26Z</time></trkpt>
<trkpt lat="35.630944" lon="139.278067"><ele>255.2</ele><time>2019-07-09T02:47:54Z</time></trkpt>
<trkpt lat="35.631306" lon="139.277850"><ele>255.8</ele><time>2019-07-09T02:48:14Z</time></trkpt>
<trkpt lat="35.631568" lon="139.277798"><ele>255.4</ele><time>2019-07-09T02:48:26Z</time></trkpt>
<trkpt lat="35.632262" lon="139.277760"><ele>254.3</ele><time>2019-07-09T02:49:02Z</time></trkpt>
<trkpt lat="35.632358" lon="139.277722"><ele>254.7</ele><time>2019-07-09T02:49:06Z</time></trkpt>
<trkpt lat="35.633197" lon="139.277606"><ele>249.9</ele><time>2019-07-09T02:49:47Z</time></trkpt>
<trkpt lat="35.633581" lon="139.278106"><ele>245.0</ele><time>2019-07-09T02:50:11Z</time></trkpt>
<trkpt lat="35.633760" lon="139.278464"><ele>241.9</ele><time>2019-07-09T02:50:27Z</time></trkpt>
<trkpt lat="35.634026" lon="139.278554"><ele>239.7</ele><time>2019-07-09T02:50:41Z</time></trkpt>
<trkpt lat="35.634230" lon="139.278554"><ele>238.7</ele><time>2019-07-09T02:50:49Z</time></trkpt>
<trkpt lat="35.634448" lon="139.278400"><ele>237.6</ele><time>2019-07-09T02:51:01Z</time></trkpt>
<trkpt lat="35.634490" lon="139.278310"><ele>237.5</ele><time>2019-07-09T02:51:05Z</time></trkpt>
<trkpt lat="35.634726" lon="139.278067"><ele>236.8</ele><time>2019-07-09T02:51:18Z</time></trkpt>
<trkpt lat="35.634848" lon="139.278003"><ele>235.0</ele><time>2019-07-09T02:52:17Z</time></trkpt>
<trkpt lat="35.634410" lon="139.277696"><ele>223.0</ele><time>2019-07-09T02:53:45Z</time></trkpt>
<trkpt lat="35.634320" lon="139.277466"><ele>218.3</ele><time>2019-07-09T02:54:03Z</time></trkpt>
<trkpt lat="35.634166" lon="139.277312"><ele>210.7</ele><time>2019-07-09T02:54:25Z</time></trkpt>
<trkpt lat="35.634093" lon="139.276890"><ele>207.3</ele><time>2019-07-09T02:54:42Z</time></trkpt>
<trkpt lat="35.634128" lon="139.276506"><ele>204.5</ele><time>2019-07-09T02:54:56Z</time></trkpt>
<trkpt lat="35.634106" lon="139.276378"><ele>202.4</ele><time>2019-07-09T02:55:03Z</time></trkpt>
<trkpt lat="35.634147" lon="139.276288"><ele>202.0</ele><time>2019-07-09T02:55:12Z</time></trkpt>
<trkpt lat="35.634259" lon="139.276262"><ele>202.8</ele><time>2019-07-09T02:55:20Z</time></trkpt>
<trkpt lat="35.634339" lon="139.276326"><ele>202.8</ele><time>2019-07-09T02:55:26Z</time></trkpt>
<trkpt lat="35.634544" lon="139.276301"><ele>201.7</ele><time>2019-07-09T02:55:40Z</time></trkpt>
<trkpt lat="35.634640" lon="139.276339"><ele>201.6</ele><time>2019-07-09T02:55:45Z</time></trkpt>
<trkpt lat="35.635258" lon="139.276339"><ele>201.1</ele><time>2019-07-09T02:56:17Z</time></trkpt>
<trkpt lat="35.635651" lon="139.276429"><ele>200.5</ele><time>2019-07-09T02:56:36Z</time></trkpt>
<trkpt lat="35.636381" lon="139.276531"><ele>198.4</ele><time>2019-07-09T02:57:11Z</time></trkpt>
<trkpt lat="35.636768" lon="139.276723"><ele>197.9</ele><time>2019-07-09T02:57:30Z</time></trkpt>
<trkpt lat="35.636886" lon="139.276736"><ele>197.4</ele><time>2019-07-09T02:57:35Z</time></trkpt>
<trkpt lat="35.637402" lon="139.277056"><ele>195.7</ele><time>2019-07-09T02:58:01Z</time></trkpt>
<trkpt lat="35.637738" lon="139.277171"><ele>193.7</ele><time>2019-07-09T02:58:17Z</time></trkpt>
<trkpt lat="35.637984" lon="139.277338"><ele>192.8</ele><time>2019-07-09T02:58:31Z</time></trkpt>
<trkpt lat="35.638367" lon="139.278091"><ele>180.6</ele><time>2019-07-09T02:58:39Z</time></trkpt>
<trkpt lat="35.638821" lon="139.278793"><ele>180.5</ele><time>2019-07-09T02:58:42Z</time></trkpt>
<trkpt lat="35.638821" lon="139.279343"><ele>179.8</ele><time>2019-07-09T02:58:47Z</time></trkpt>
<trkpt lat="35.639137" lon="139.280029"><ele>177.5</ele><time>2019-07-09T02:59:43Z</time></trkpt>
<trkpt lat="35.639538" lon="139.280197"><ele>176.4</ele><time>2019-07-09T03:00:00Z</time></trkpt>
<trkpt lat="35.639763" lon="139.280151"><ele>177.0</ele><time>2019-07-09T03:00:14Z</time></trkpt>
<trkpt lat="35.639729" lon="139.279694"><ele>202.1</ele><time>2019-07-09T03:00:41Z</time></trkpt>
<trkpt lat="35.639885" lon="139.279053"><ele>214.5</ele><time>2019-07-09T03:01:13Z</time></trkpt>
<trkpt lat="35.639954" lon="139.278290"><ele>244.2</ele><time>2019-07-09T03:01:42Z</time></trkpt>
<trkpt lat="35.639919" lon="139.277573"><ele>245.5</ele><time>2019-07-09T03:02:39Z</time></trkpt>
<trkpt lat="35.640007" lon="139.276886"><ele>252.0</ele><time>2019-07-09T03:03:09Z</time></trkpt>
<trkpt lat="35.640060" lon="139.275925"><ele>233.2</ele><time>2019-07-09T03:03:47Z</time></trkpt>
<trkpt lat="35.640236" lon="139.275513"><ele>232.5</ele><time>2019-07-09T03:04:08Z</time></trkpt>
<trkpt lat="35.640182" lon="139.274918"><ele>226.3</ele><time>2019-07-09T03:04:36Z</time></trkpt>
<trkpt lat="35.639694" lon="139.274658"><ele>235.4</ele><time>2019-07-09T03:05:05Z</time></trkpt>
<trkpt lat="35.639309" lon="139.274078"><ele>232.3</ele><time>2019-07-09T03:05:28Z</time></trkpt>
<trkpt lat="35.639098" lon="139.273408"><ele>233.3</ele><time>2019-07-09T03:06:08Z</time></trkpt>
<trkpt lat="35.639136" lon="139.273395"><ele>235.2</ele><time>2019-07-09T03:06:26Z</time></trkpt>
<trkpt lat="35.639072" lon="139.273421"><ele>235.3</ele><time>2019-07-09T03:06:55Z</time></trkpt>
<trkpt lat="35.639014" lon="139.273395"><ele>236.7</ele><time>2019-07-09T03:07:04Z</time></trkpt>
<trkpt lat="35.638989" lon="139.273434"><ele>237.8</ele><time>2019-07-09T03:07:09Z</time></trkpt>
<trkpt lat="35.638909" lon="139.273395"><ele>239.4</ele><time>2019-07-09T03:07:17Z</time></trkpt>
<trkpt lat="35.638886" lon="139.273331"><ele>240.3</ele><time>2019-07-09T03:07:22Z</time></trkpt>
<trkpt lat="35.638736" lon="139.273344"><ele>244.3</ele><time>2019-07-09T03:07:41Z</time></trkpt>
<trkpt lat="35.638707" lon="139.273203"><ele>249.0</ele><time>2019-07-09T03:08:07Z</time></trkpt>
<trkpt lat="35.638477" lon="139.273126"><ele>257.7</ele><time>2019-07-09T03:08:55Z</time></trkpt>
<trkpt lat="35.638352" lon="139.273242"><ele>261.9</ele><time>2019-07-09T03:09:19Z</time></trkpt>
<trkpt lat="35.638253" lon="139.273280"><ele>264.9</ele><time>2019-07-09T03:09:38Z</time></trkpt>
<trkpt lat="35.638150" lon="139.273472"><ele>271.4</ele><time>2019-07-09T03:10:13Z</time></trkpt>
<trkpt lat="35.637914" lon="139.273434"><ele>273.9</ele><time>2019-07-09T03:10:37Z</time></trkpt>
<trkpt lat="35.637706" lon="139.273280"><ele>275.3</ele><time>2019-07-09T03:10:49Z</time></trkpt>
<trkpt lat="35.637197" lon="139.273229"><ele>268.7</ele><time>2019-07-09T03:11:17Z</time></trkpt>
<trkpt lat="35.637107" lon="139.273178"><ele>268.3</ele><time>2019-07-09T03:11:21Z</time></trkpt>
<trkpt lat="35.637011" lon="139.273203"><ele>267.7</ele><time>2019-07-09T03:11:28Z</time></trkpt>
<trkpt lat="35.636701" lon="139.273357"><ele>275.3</ele><time>2019-07-09T03:12:09Z</time></trkpt>
<trkpt lat="35.636701" lon="139.273472"><ele>277.8</ele><time>2019-07-09T03:12:23Z</time></trkpt>
<trkpt lat="35.636595" lon="139.273485"><ele>281.2</ele><time>2019-07-09T03:12:39Z</time></trkpt>
<trkpt lat="35.636515" lon="139.273626"><ele>286.3</ele><time>2019-07-09T03:13:05Z</time></trkpt>
<trkpt lat="35.636381" lon="139.273715"><ele>286.8</ele><time>2019-07-09T03:13:16Z</time></trkpt>
<trkpt lat="35.636198" lon="139.273702"><ele>284.8</ele><time>2019-07-09T03:13:25Z</time></trkpt>
<trkpt lat="35.636070" lon="139.273638"><ele>283.7</ele><time>2019-07-09T03:13:32Z</time></trkpt>
<trkpt lat="35.635846" lon="139.273741"><ele>282.8</ele><time>2019-07-09T03:13:48Z</time></trkpt>
<trkpt lat="35.635715" lon="139.273754"><ele>286.4</ele><time>2019-07-09T03:14:04Z</time></trkpt>
<trkpt lat="35.635680" lon="139.273830"><ele>288.5</ele><time>2019-07-09T03:14:15Z</time></trkpt>
<trkpt lat="35.635581" lon="139.273869"><ele>290.1</ele><time>2019-07-09T03:14:30Z</time></trkpt>
<trkpt lat="35.635536" lon="139.273818"><ele>290.1</ele><time>2019-07-09T03:14:37Z</time></trkpt>
<trkpt lat="35.635238" lon="139.273741"><ele>284.3</ele><time>2019-07-09T03:14:51Z</time></trkpt>
<trkpt lat="35.635123" lon="139.273626"><ele>280.3</ele><time>2019-07-09T03:14:56Z</time></trkpt>
<trkpt lat="35.634778" lon="139.273421"><ele>278.3</ele><time>2019-07-09T03:15:25Z</time></trkpt>
<trkpt lat="35.634682" lon="139.273408"><ele>279.7</ele><time>2019-07-09T03:15:33Z</time></trkpt>
<trkpt lat="35.634570" lon="139.273485"><ele>284.5</ele><time>2019-07-09T03:15:52Z</time></trkpt>
<trkpt lat="35.634400" lon="139.273408"><ele>290.9</ele><time>2019-07-09T03:16:22Z</time></trkpt>
<trkpt lat="35.634362" lon="139.273331"><ele>292.7</ele><time>2019-07-09T03:16:31Z</time></trkpt>
<trkpt lat="35.634246" lon="139.273267"><ele>295.9</ele><time>2019-07-09T03:16:48Z</time></trkpt>
<trkpt lat="35.634138" lon="139.272832"><ele>292.7</ele><time>2019-07-09T03:17:09Z</time></trkpt>
<trkpt lat="35.633603" lon="139.272550"><ele>279.7</ele><time>2019-07-09T03:18:08Z</time></trkpt>
<trkpt lat="35.633232" lon="139.272704"><ele>281.6</ele><time>2019-07-09T03:18:32Z</time></trkpt>
<trkpt lat="35.633190" lon="139.272717"><ele>281.7</ele><time>2019-07-09T03:18:34Z</time></trkpt>
<trkpt lat="35.632502" lon="139.272320"><ele>279.7</ele><time>2019-07-09T03:19:41Z</time></trkpt>
<trkpt lat="35.632266" lon="139.272448"><ele>293.3</ele><time>2019-07-09T03:20:42Z</time></trkpt>
<trkpt lat="35.632032" lon="139.272614"><ele>301.4</ele><time>2019-07-09T03:21:24Z</time></trkpt>
<trkpt lat="35.631834" lon="139.272845"><ele>305.4</ele><time>2019-07-09T03:21:54Z</time></trkpt>
<trkpt lat="35.631597" lon="139.272845"><ele>301.7</ele><time>2019-07-09T03:23:21Z</time></trkpt>
<trkpt lat="35.631629" lon="139.272845"><ele>301.2</ele><time>2019-07-09T03:23:24Z</time></trkpt>
<trkpt lat="35.631600" lon="139.272870"><ele>301.2</ele><time>2019-07-09T03:23:55Z</time></trkpt>
<trkpt lat="35.631405" lon="139.272768"><ele>298.1</ele><time>2019-07-09T03:38:33Z</time></trkpt>
<trkpt lat="35.631114" lon="139.272627"><ele>291.7</ele><time>2019-07-09T03:38:57Z</time></trkpt>
<trkpt lat="35.631014" lon="139.272640"><ele>295.8</ele><time>2019-07-09T03:40:31Z</time></trkpt>
<trkpt lat="35.631101" lon="139.272589"><ele>294.5</ele><time>2019-07-09T03:40:52Z</time></trkpt>
<trkpt lat="35.631011" lon="139.272627"><ele>294.7</ele><time>2019-07-09T03:41:12Z</time></trkpt>
<trkpt lat="35.630781" lon="139.272589"><ele>300.8</ele><time>2019-07-09T03:41:37Z</time></trkpt>
<trkpt lat="35.630630" lon="139.272666"><ele>306.1</ele><time>2019-07-09T03:42:03Z</time></trkpt>
<trkpt lat="35.630595" lon="139.272640"><ele>305.7</ele><time>2019-07-09T03:42:06Z</time></trkpt>
<trkpt lat="35.630483" lon="139.272755"><ele>303.8</ele><time>2019-07-09T03:42:17Z</time></trkpt>
<trkpt lat="35.630470" lon="139.272730"><ele>303.6</ele><time>2019-07-09T03:42:18Z</time></trkpt>
<trkpt lat="35.630304" lon="139.272832"><ele>303.9</ele><time>2019-07-09T03:42:37Z</time></trkpt>
<trkpt lat="35.630138" lon="139.272806"><ele>304.9</ele><time>2019-07-09T03:42:52Z</time></trkpt>
<trkpt lat="35.630061" lon="139.272922"><ele>305.6</ele><time>2019-07-09T03:43:02Z</time></trkpt>
<trkpt lat="35.629894" lon="139.273011"><ele>303.8</ele><time>2019-07-09T03:43:20Z</time></trkpt>
<trkpt lat="35.629888" lon="139.273062"><ele>304.6</ele><time>2019-07-09T03:43:24Z</time></trkpt>
<trkpt lat="35.629933" lon="139.273114"><ele>306.8</ele><time>2019-07-09T03:43:41Z</time></trkpt>
<trkpt lat="35.629853" lon="139.273011"><ele>306.6</ele><time>2019-07-09T03:44:10Z</time></trkpt>
<trkpt lat="35.629770" lon="139.272986"><ele>303.6</ele><time>2019-07-09T03:44:39Z</time></trkpt>
<trkpt lat="35.629386" lon="139.272845"><ele>290.7</ele><time>2019-07-09T03:45:15Z</time></trkpt>
<trkpt lat="35.629267" lon="139.272704"><ele>284.8</ele><time>2019-07-09T03:46:00Z</time></trkpt>
<trkpt lat="35.629424" lon="139.272602"><ele>281.2</ele><time>2019-07-09T03:46:17Z</time></trkpt>
<trkpt lat="35.629491" lon="139.272486"><ele>277.5</ele><time>2019-07-09T03:46:26Z</time></trkpt>
<trkpt lat="35.629584" lon="139.272486"><ele>273.2</ele><time>2019-07-09T03:46:36Z</time></trkpt>
<trkpt lat="35.629715" lon="139.272051"><ele>259.4</ele><time>2019-07-09T03:47:15Z</time></trkpt>
<trkpt lat="35.629773" lon="139.271962"><ele>256.8</ele><time>2019-07-09T03:47:23Z</time></trkpt>
<trkpt lat="35.629939" lon="139.271872"><ele>251.5</ele><time>2019-07-09T03:47:43Z</time></trkpt>
<trkpt lat="35.630074" lon="139.271424"><ele>239.9</ele><time>2019-07-09T03:48:13Z</time></trkpt>
<trkpt lat="35.630109" lon="139.271181"><ele>235.3</ele><time>2019-07-09T03:48:30Z</time></trkpt>
<trkpt lat="35.630307" lon="139.270630"><ele>222.3</ele><time>2019-07-09T03:49:02Z</time></trkpt>
<trkpt lat="35.630752" lon="139.270426"><ele>211.0</ele><time>2019-07-09T03:49:35Z</time></trkpt>
<trkpt lat="35.631104" lon="139.270221"><ele>201.6</ele><time>2019-07-09T03:50:07Z</time></trkpt>
<trkpt lat="35.631168" lon="139.270131"><ele>200.6</ele><time>2019-07-09T03:50:15Z</time></trkpt>
<trkpt lat="35.631142" lon="139.270016"><ele>198.6</ele><time>2019-07-09T03:50:32Z</time></trkpt>
<trkpt lat="35.631005" lon="139.269862"><ele>197.8</ele><time>2019-07-09T03:50:45Z</time></trkpt>
<trkpt lat="35.630973" lon="139.269606"><ele>196.8</ele><time>2019-07-09T03:51:05Z</time></trkpt>
<trkpt lat="35.631072" lon="139.269581"><ele>196.8</ele><time>2019-07-09T03:51:15Z</time></trkpt>
<trkpt lat="35.631229" lon="139.269619"><ele>196.4</ele><time>2019-07-09T03:51:31Z</time></trkpt>
<trkpt lat="35.631616" lon="139.269888"><ele>195.2</ele><time>2019-07-09T03:52:14Z</time></trkpt>
<trkpt lat="35.631795" lon="139.269773"><ele>195.5</ele><time>2019-07-09T03:52:40Z</time></trkpt>
<trkpt lat="35.631904" lon="139.269837"><ele>194.6</ele><time>2019-07-09T03:52:50Z</time></trkpt>
<trkpt lat="35.632000" lon="139.269965"><ele>194.7</ele><time>2019-07-09T03:53:03Z</time></trkpt>
<trkpt lat="35.632061" lon="139.269939"><ele>194.6</ele><time>2019-07-09T03:53:09Z</time></trkpt>
<trkpt lat="35.632272" lon="139.270054"><ele>194.2</ele><time>2019-07-09T03:53:30Z</time></trkpt>
</trkseg></trk></gpx>
