<?xml version="1.0" encoding="UTF-8"?>
<gpx version="1.1" creator="osm_traces.py" xmlns="http://www.topografix.com/GPX/1/1">
<wpt lat="35.6322" lon="139.2699"><name>高尾山口駅</name><type>start</type></wpt>
<wpt lat="35.6337" lon="139.2632"><name>金比羅台</name><type>wp</type></wpt>
<wpt lat="35.6304" lon="139.2565"><name>ケーブル高尾山駅</name><type>hut</type></wpt>
<wpt lat="35.6252" lon="139.2478"><name>薬王院</name><type>junction</type></wpt>
<wpt lat="35.6252" lon="139.2436"><name>高尾山山頂</name><type>peak</type></wpt>
<wpt lat="35.6322" lon="139.2699"><name>高尾山口駅</name><type>goal</type></wpt>
<trk><trkseg>
<trkpt lat="35.631349" lon="139.268600"><ele>199.6</ele><time>2011-03-27T04:11:54Z</time></trkpt>
<trkpt lat="35.631281" lon="139.268101"><ele>199.7</ele><time>2011-03-27T04:12:25Z</time></trkpt>
<trkpt lat="35.631252" lon="139.267615"><ele>199.7</ele><time>2011-03-27T04:12:55Z</time></trkpt>
<trkpt lat="35.631299" lon="139.267248"><ele>200.0</ele><time>2011-03-27T04:13:40Z</time></trkpt>
<trkpt lat="35.631193" lon="139.267203"><ele>200.0</ele><time>2011-03-27T04:14:45Z</time></trkpt>
<trkpt lat="35.631309" lon="139.267566"><ele>200.5</ele><time>2011-03-27T04:15:27Z</time></trkpt>
<trkpt lat="35.631329" lon="139.267761"><ele>200.5</ele><time>2011-03-27T04:16:46Z</time></trkpt>
<trkpt lat="35.631465" lon="139.267580"><ele>200.5</ele><time>2011-03-27T04:17:48Z</time></trkpt>
<trkpt lat="35.631679" lon="139.267293"><ele>204.4</ele><time>2011-03-27T04:18:22Z</time></trkpt>
<trkpt lat="35.631853" lon="139.266880"><ele>207.3</ele><time>2011-03-27T04:18:46Z</time></trkpt>
<trkpt lat="35.632029" lon="139.266453"><ele>209.8</ele><time>2011-03-27T04:19:15Z</time></trkpt>
<trkpt lat="35.632259" lon="139.266100"><ele>215.2</ele><time>2011-03-27T04:19:39Z</time></trkpt>
<trkpt lat="35.632519" lon="139.265770"><ele>217.9</ele><time>2011-03-27T04:20:14Z</time></trkpt>
<trkpt lat="35.632779" lon="139.265383"><ele>226.9</ele><time>2011-03-27T04:20:32Z</time></trkpt>
<trkpt lat="35.632831" lon="139.264932"><ele>229.7</ele><time>2011-03-27T04:20:53Z</time></trkpt>
<trkpt lat="35.632974" lon="139.264465"><ele>232.1</ele><time>2011-03-27T04:21:20Z</time></trkpt>
<trkpt lat="35.633009" lon="139.264040"><ele>240.1</ele><time>2011-03-27T04:21:52Z</time></trkpt>
<trkpt lat="35.633158" lon="139.263611"><ele>246.3</ele><time>2011-03-27T04:22:24Z</time></trkpt>
<trkpt lat="35.633301" lon="139.263308"><ele>248.4</ele><time>2011-03-27T04:22:59Z</time></trkpt>
<trkpt lat="35.633479" lon="139.262913"><ele>252.8</ele><time>2011-03-27T04:23:33Z</time></trkpt>
<trkpt lat="35.633704" lon="139.262560"><ele>259.5</ele><time>2011-03-27T04:24:03Z</time></trkpt>
<trkpt lat="35.633879" lon="139.262153"><ele>266.0</ele><time>2011-03-27T04:24:29Z</time></trkpt>
<trkpt lat="35.634068" lon="139.261766"><ele>270.2</ele><time>2011-03-27T04:24:47Z</time></trkpt>
<trkpt lat="35.634277" lon="139.261460"><ele>278.4</ele><time>2011-03-27T04:25:11Z</time></trkpt>
<trkpt lat="35.634309" lon="139.260965"><ele>289.7</ele><time>2011-03-27T04:25:36Z</time></trkpt>
<trkpt lat="35.634447" lon="139.260582"><ele>297.0</ele><time>2011-03-27T04:26:05Z</time></trkpt>
<trkpt lat="35.634328" lon="139.260200"><ele>297.4</ele><time>2011-03-27T04:26:38Z</time></trkpt>
<trkpt lat="35.634364" lon="139.260375"><ele>298.6</ele><time>2011-03-27T04:27:27Z</time></trkpt>
<trkpt lat="35.634381" lon="139.260150"><ele>298.6</ele><time>2011-03-27T04:28:11Z</time></trkpt>
<trkpt lat="35.634249" lon="139.260142"><ele>298.6</ele><time>2011-03-27T04:28:58Z</time></trkpt>
<trkpt lat="35.634441" lon="139.260410"><ele>301.6</ele><time>2011-03-27T04:29:31Z</time></trkpt>
<trkpt lat="35.634752" lon="139.260700"><ele>322.2</ele><time>2011-03-27T04:29:58Z</time></trkpt>
<trkpt lat="35.634868" lon="139.261117"><ele>331.9</ele><time>2011-03-27T04:30:32Z</time></trkpt>
<trkpt lat="35.635019" lon="139.261155"><ele>337.2</ele><time>2011-03-27T04:31:12Z</time></trkpt>
<trkpt lat="35.635099" lon="139.260757"><ele>337.2</ele><time>2011-03-27T04:31:45Z</time></trkpt>
<trkpt lat="35.635010" lon="139.260349"><ele>343.2</ele><time>2011-03-27T04:32:27Z</time></trkpt>
<trkpt lat="35.634934" lon="139.260002"><ele>345.4</ele><time>2011-03-27T04:33:00Z</time></trkpt>
<trkpt lat="35.635239" lon="139.260290"><ele>355.3</ele><time>2011-03-27T04:33:24Z</time></trkpt>
<trkpt lat="35.635444" lon="139.260695"><ele>359.8</ele><time>2011-03-27T04:33:59Z</time></trkpt>
<trkpt lat="35.635302" lon="139.260266"><ele>369.9</ele><time>2011-03-27T04:34:32Z</time></trkpt>
<trkpt lat="35.635272" lon="139.259743"><ele>378.5</ele><time>2011-03-27T04:35:06Z</time></trkpt>
<trkpt lat="35.635149" lon="139.259310"><ele>391.0</ele><time>2011-03-27T04:35:40Z</time></trkpt>
<trkpt lat="35.634904" lon="139.258991"><ele>394.1</ele><time>2011-03-27T04:36:12Z</time></trkpt>
<trkpt lat="35.634709" lon="139.258604"><ele>401.4</ele><time>2011-03-27T04:36:43Z</time></trkpt>
<trkpt lat="35.634609" lon="139.258130"><ele>413.0</ele><time>2011-03-27T04:37:16Z</time></trkpt>
<trkpt lat="35.634520" lon="139.257671"><ele>423.5</ele><time>2011-03-27T04:37:47Z</time></trkpt>
<trkpt lat="35.634337" lon="139.257238"><ele>432.4</ele><time>2011-03-27T04:38:20Z</time></trkpt>
<trkpt lat="35.633999" lon="139.257070"><ele>442.8</ele><time>2011-03-27T04:39:04Z</time></trkpt>
<trkpt lat="35.633816" lon="139.257093"><ele>446.9</ele><time>2011-03-27T04:40:16Z</time></trkpt>
<trkpt lat="35.633512" lon="139.257260"><ele>448.7</ele><time>2011-03-27T04:40:52Z</time></trkpt>
<trkpt lat="35.633191" lon="139.257330"><ele>450.2</ele><time>2011-03-27T04:41:25Z</time></trkpt>
<trkpt lat="35.632829" lon="139.257324"><ele>460.9</ele><time>2011-03-27T04:41:56Z</time></trkpt>
<trkpt lat="35.632466" lon="139.257400"><ele>468.4</ele><time>2011-03-27T04:42:28Z</time></trkpt>
<trkpt lat="35.632322" lon="139.257460"><ele>469.0</ele><time>2011-03-27T04:43:28Z</time></trkpt>
<trkpt lat="35.632042" lon="139.257243"><ele>469.2</ele><time>2011-03-27T04:43:53Z</time></trkpt>
<trkpt lat="35.631834" lon="139.256835"><ele>471.4</ele><time>2011-03-27T04:44:17Z</time></trkpt>
<trkpt lat="35.631533" lon="139.256560"><ele>471.8</ele><time>2011-03-27T04:44:42Z</time></trkpt>
<trkpt lat="35.631106" lon="139.256495"><ele>474.3</ele><time>2011-03-27T04:45:08Z</time></trkpt>
<trkpt lat="35.631079" lon="139.256377"><ele>475.7</ele><time>2011-03-27T04:47:21Z</time></trkpt>
<trkpt lat="35.630769" lon="139.256407"><ele>476.3</ele><time>2011-03-27T04:48:04Z</time></trkpt>
<trkpt lat="35.630471" lon="139.256122"><ele>477.7</ele><time>2011-03-27T04:48:33Z</time></trkpt>
<trkpt lat="35.630359" lon="139.255699"><ele>477.7</ele><time>2011-03-27T04:48:59Z</time></trkpt>
<trkpt lat="35.630222" lon="139.255230"><ele>477.7</ele><time>2011-03-27T04:49:22Z</time></trkpt>
<trkpt lat="35.630202" lon="139.254757"><ele>476.4</ele><time>2011-03-27T04:49:55Z</time></trkpt>
<trkpt lat="35.630168" lon="139.254346"><ele>472.2</ele><time>2011-03-27T04:50:32Z</time></trkpt>
<trkpt lat="35.630117" lon="139.254260"><ele>472.2</ele><time>2011-03-27T04:51:03Z</time></trkpt>
<trkpt lat="35.629979" lon="139.253891"><ele>472.2</ele><time>2011-03-27T04:51:34Z</time></trkpt>
<trkpt lat="35.629959" lon="139.253431"><ele>476.0</ele><time>2011-03-27T04:52:01Z</time></trkpt>
<trkpt lat="35.629990" lon="139.253004"><ele>478.7</ele><time>2011-03-27T04:52:29Z</time></trkpt>
<trkpt lat="35.630033" lon="139.252618"><ele>478.7</ele><time>2011-03-27T04:53:01Z</time></trkpt>
<trkpt lat="35.630129" lon="139.252303"><ele>478.7</ele><time>2011-03-27T04:53:34Z</time></trkpt>
<trkpt lat="35.630099" lon="139.251890"><ele>470.7</ele><time>2011-03-27T04:54:02Z</time></trkpt>
<trkpt lat="35.629858" lon="139.251546"><ele>470.5</ele><time>2011-03-27T04:54:32Z</time></trkpt>
<trkpt lat="35.629535" lon="139.251266"><ele>470.5</ele><time>2011-03-27T04:54:58Z</time></trkpt>
<trkpt lat="35.629349" lon="139.251173"><ele>467.3</ele><time>2011-03-27T04:55:26Z</time></trkpt>
<trkpt lat="35.629278" lon="139.250749"><ele>465.5</ele><time>2011-03-27T04:55:56Z</time></trkpt>
<trkpt lat="35.629011" lon="139.250362"><ele>465.5</ele><time>2011-03-27T04:56:22Z</time></trkpt>
<trkpt lat="35.628749" lon="139.250055"><ele>458.6</ele><time>2011-03-27T04:56:51Z</time></trkpt>
<trkpt lat="35.628479" lon="139.249735"><ele>457.9</ele><time>2011-03-27T04:57:16Z</time></trkpt>
<trkpt lat="35.628201" lon="139.249480"><ele>457.9</ele><time>2011-03-27T04:57:46Z</time></trkpt>
<trkpt lat="35.627961" lon="139.249212"><ele>457.9</ele><time>2011-03-27T04:58:22Z</time></trkpt>
<trkpt lat="35.627988" lon="139.249155"><ele>457.9</ele><time>2011-03-27T04:59:09Z</time></trkpt>
<trkpt lat="35.628079" lon="139.249062"><ele>457.9</ele><time>2011-03-27T04:59:54Z</time></trkpt>
<trkpt lat="35.627853" lon="139.249256"><ele>448.1</ele><time>2011-03-27T05:00:46Z</time></trkpt>
<trkpt lat="35.628195" lon="139.249252"><ele>448.1</ele><time>2011-03-27T05:01:15Z</time></trkpt>
<trkpt lat="35.628389" lon="139.249350"><ele>459.1</ele><time>2011-03-27T05:01:47Z</time></trkpt>
<trkpt lat="35.628703" lon="139.249123"><ele>459.1</ele><time>2011-03-27T05:02:13Z</time></trkpt>
<trkpt lat="35.628915" lon="139.248786"><ele>471.5</ele><time>2011-03-27T05:02:54Z</time></trkpt>
<trkpt lat="35.629082" lon="139.248510"><ele>476.4</ele><time>2011-03-27T05:03:43Z</time></trkpt>
<trkpt lat="35.629405" lon="139.248288"><ele>486.2</ele><time>2011-03-27T05:04:22Z</time></trkpt>
<trkpt lat="35.629659" lon="139.247980"><ele>502.7</ele><time>2011-03-27T05:04:56Z</time></trkpt>
<trkpt lat="35.629853" lon="139.247650"><ele>508.4</ele><time>2011-03-27T05:05:35Z</time></trkpt>
<trkpt lat="35.630081" lon="139.247530"><ele>511.0</ele><time>2011-03-27T05:06:31Z</time></trkpt>
<trkpt lat="35.629776" lon="139.247680"><ele>511.2</ele><time>2011-03-27T05:07:17Z</time></trkpt>
<trkpt lat="35.629384" lon="139.247608"><ele>515.8</ele><time>2011-03-27T05:07:50Z</time></trkpt>
<trkpt lat="35.629067" lon="139.247660"><ele>518.2</ele><time>2011-03-27T05:08:59Z</time></trkpt>
<trkpt lat="35.628741" lon="139.247480"><ele>518.2</ele><time>2011-03-27T05:09:45Z</time></trkpt>
<trkpt lat="35.628449" lon="139.247199"><ele>521.0</ele><time>2011-03-27T05:10:17Z</time></trkpt>
<trkpt lat="35.628147" lon="139.246930"><ele>524.9</ele><time>2011-03-27T05:10:52Z</time></trkpt>
<trkpt lat="35.627818" lon="139.246700"><ele>524.9</ele><time>2011-03-27T05:11:19Z</time></trkpt>
<trkpt lat="35.627452" lon="139.246616"><ele>539.4</ele><time>2011-03-27T05:12:00Z</time></trkpt>
<trkpt lat="35.627115" lon="139.246480"><ele>554.1</ele><time>2011-03-27T05:12:43Z</time></trkpt>
<trkpt lat="35.626919" lon="139.246210"><ele>555.7</ele><time>2011-03-27T05:13:13Z</time></trkpt>
<trkpt lat="35.626649" lon="139.245957"><ele>557.9</ele><time>2011-03-27T05:14:01Z</time></trkpt>
<trkpt lat="35.626397" lon="139.245628"><ele>558.2</ele><time>2011-03-27T05:14:29Z</time></trkpt>
<trkpt lat="35.626149" lon="139.245306"><ele>569.8</ele><time>2011-03-27T05:15:03Z</time></trkpt>
<trkpt lat="35.626059" lon="139.244840"><ele>570.2</ele><time>2011-03-27T05:15:31Z</time></trkpt>
<trkpt lat="35.626024" lon="139.244335"><ele>572.5</ele><time>2011-03-27T05:16:05Z</time></trkpt>
<trkpt lat="35.625729" lon="139.244206"><ele>583.4</ele><time>2011-03-27T05:16:46Z</time></trkpt>
<trkpt lat="35.625533" lon="139.244252"><ele>583.4</ele><time>2011-03-27T05:17:43Z</time></trkpt>
<trkpt lat="35.625208" lon="139.244009"><ele>586.5</ele><time>2011-03-27T05:18:18Z</time></trkpt>
<trkpt lat="35.625152" lon="139.243660"><ele>595.7</ele><time>2011-03-27T05:19:06Z</time></trkpt>
<trkpt lat="35.625208" lon="139.244009"><ele>586.5</ele><time>2011-03-27T05:19:54Z</time></trkpt>
<trkpt lat="35.625533" lon="139.244252"><ele>583.4</ele><time>2011-03-27T05:20:29Z</time></trkpt>
<trkpt lat="35.625729" lon="139.244206"><ele>583.4</ele><time>2011-03-27T05:21:26Z</time></trkpt>
<trkpt lat="35.626024" lon="139.244335"><ele>572.5</ele><time>2011-03-27T05:22:07Z</time></trkpt>
<trkpt lat="35.626059" lon="139.244840"><ele>570.2</ele><time>2011-03-27T05:22:41Z</time></trkpt>
<trkpt lat="35.626149" lon="139.245306"><ele>569.8</ele><time>2011-03-27T05:23:09Z</time></trkpt>
<trkpt lat="35.626397" lon="139.245628"><ele>558.2</ele><time>2011-03-27T05:23:43Z</time></trkpt>
<trkpt lat="35.626649" lon="139.245957"><ele>557.9</ele><time>2011-03-27T05:24:11Z</time></trkpt>
<trkpt lat="35.626919" lon="139.246210"><ele>555.7</ele><time>2011-03-27T05:24:59Z</time></trkpt>
<trkpt lat="35.627115" lon="139.246480"><ele>554.1</ele><time>2011-03-27T05:25:29Z</time></trkpt>
<trkpt lat="35.627452" lon="139.246616"><ele>539.4</ele><time>2011-03-27T05:26:12Z</time></trkpt>
<trkpt lat="35.627818" lon="139.246700"><ele>524.9</ele><time>2011-03-27T05:26:53Z</time></trkpt>
<trkpt lat="35.628147" lon="139.246930"><ele>524.9</ele><time>2011-03-27T05:27:20Z</time></trkpt>
<trkpt lat="35.628449" lon="139.247199"><ele>521.0</ele><time>2011-03-27T05:27:55Z</time></trkpt>
<trkpt lat="35.628741" lon="139.247480"><ele>518.2</ele><time>2011-03-27T05:28:27Z</time></trkpt>
<trkpt lat="35.629067" lon="139.247660"><ele>518.2</ele><time>2011-03-27T05:29:13Z</time></trkpt>
<trkpt lat="35.629384" lon="139.247608"><ele>515.8</ele><time>2011-03-27T05:30:22Z</time></trkpt>
<trkpt lat="35.629776" lon="139.247680"><ele>511.2</ele><time>2011-03-27T05:30:55Z</time></trkpt>
<trkpt lat="35.630081" lon="139.247530"><ele>511.0</ele><time>2011-03-27T05:31:41Z</time></trkpt>
<trkpt lat="35.629853" lon="139.247650"><ele>508.4</ele><time>2011-03-27T05:32:37Z</time></trkpt>
<trkpt lat="35.629659" lon="139.247980"><ele>502.7</ele><time>2011-03-27T05:33:16Z</time></trkpt>
<trkpt lat="35.629405" lon="139.248288"><ele>486.2</ele><time>2011-03-27T05:33:50Z</time></trkpt>
<trkpt lat="35.629082" lon="139.248510"><ele>476.4</ele><time>2011-03-27T05:34:29Z</time></trkpt>
<trkpt lat="35.628915" lon="139.248786"><ele>471.5</ele><time>2011-03-27T05:35:18Z</time></trkpt>
<trkpt lat="35.628703" lon="139.249123"><ele>459.1</ele><time>2011-03-27T05:35:59Z</time></trkpt>
<trkpt lat="35.628389" lon="139.249350"><ele>459.1</ele><time>2011-03-27T05:36:25Z</time></trkpt>
<trkpt lat="35.628195" lon="139.249252"><ele>448.1</ele><time>2011-03-27T05:36:57Z</time></trkpt>
<trkpt lat="35.627853" lon="139.249256"><ele>448.1</ele><time>2011-03-27T05:37:26Z</time></trkpt>
<trkpt lat="35.628079" lon="139.249062"><ele>457.9</ele><time>2011-03-27T05:38:18Z</time></trkpt>
<trkpt lat="35.627988" lon="139.249155"><ele>457.9</ele><time>2011-03-27T05:39:03Z</time></trkpt>
<trkpt lat="35.627961" lon="139.249212"><ele>457.9</ele><time>2011-03-27T05:39:50Z</time></trkpt>
<trkpt lat="35.628201" lon="139.249480"><ele>457.9</ele><time>2011-03-27T05:40:26Z</time></trkpt>
<trkpt lat="35.628479" lon="139.249735"><ele>457.9</ele><time>2011-03-27T05:40:56Z</time></trkpt>
<trkpt lat="35.628749" lon="139.250055"><ele>458.6</ele><time>2011-03-27T05:41:21Z</time></trkpt>
<trkpt lat="35.629011" lon="139.250362"><ele>465.5</ele><time>2011-03-27T05:41:50Z</time></trkpt>
<trkpt lat="35.629278" lon="139.250749"><ele>465.5</ele><time>2011-03-27T05:42:16Z</time></trkpt>
<trkpt lat="35.629349" lon="139.251173"><ele>467.3</ele><time>2011-03-27T05:42:46Z</time></trkpt>
<trkpt lat="35.629535" lon="139.251266"><ele>470.5</ele><time>2011-03-27T05:43:14Z</time></trkpt>
<trkpt lat="35.629858" lon="139.251546"><ele>470.5</ele><time>2011-03-27T05:43:40Z</time></trkpt>
<trkpt lat="35.630099" lon="139.251890"><ele>470.7</ele><time>2011-03-27T05:44:10Z</time></trkpt>
<trkpt lat="35.630129" lon="139.252303"><ele>478.7</ele><time>2011-03-27T05:44:38Z</time></trkpt>
<trkpt lat="35.630033" lon="139.252618"><ele>478.7</ele><time>2011-03-27T05:45:11Z</time></trkpt>
<trkpt lat="35.629990" lon="139.253004"><ele>478.7</ele><time>2011-03-27T05:45:43Z</time></trkpt>
<trkpt lat="35.629959" lon="139.253431"><ele>476.0</ele><time>2011-03-27T05:46:11Z</time></trkpt>
<trkpt lat="35.629979" lon="139.253891"><ele>472.2</ele><time>2011-03-27T05:46:38Z</time></trkpt>
<trkpt lat="35.630117" lon="139.254260"><ele>472.2</ele><time>2011-03-27T05:47:09Z</time></trkpt>
<trkpt lat="35.630168" lon="139.254346"><ele>472.2</ele><time>2011-03-27T05:47:40Z</time></trkpt>
<trkpt lat="35.630202" lon="139.254757"><ele>476.4</ele><time>2011-03-27T05:48:17Z</time></trkpt>
<trkpt lat="35.630222" lon="139.255230"><ele>477.7</ele><time>2011-03-27T05:48:50Z</time></trkpt>
<trkpt lat="35.630359" lon="139.255699"><ele>477.7</ele><time>2011-03-27T05:49:13Z</time></trkpt>
<trkpt lat="35.630471" lon="139.256122"><ele>477.7</ele><time>2011-03-27T05:49:39Z</time></trkpt>
<trkpt lat="35.630769" lon="139.256407"><ele>476.3</ele><time>2011-03-27T05:50:08Z</time></trkpt>
<trkpt lat="35.631079" lon="139.256377"><ele>475.7</ele><time>2011-03-27T05:50:51Z</time></trkpt>
<trkpt lat="35.631106" lon="139.256495"><ele>474.3</ele><time>2011-03-27T05:53:04Z</time></trkpt>
<trkpt lat="35.631533" lon="139.256560"><ele>471.8</ele><time>2011-03-27T05:53:30Z</time></trkpt>
<trkpt lat="35.631834" lon="139.256835"><ele>471.4</ele><time>2011-03-27T05:53:55Z</time></trkpt>
<trkpt lat="35.632042" lon="139.257243"><ele>469.2</ele><time>2011-03-27T05:54:19Z</time></trkpt>
<trkpt lat="35.632322" lon="139.257460"><ele>469.0</ele><time>2011-03-27T05:54:44Z</time></trkpt>
<trkpt lat="35.632466" lon="139.257400"><ele>468.4</ele><time>2011-03-27T05:55:44Z</time></trkpt>
<trkpt lat="35.632829" lon="139.257324"><ele>460.9</ele><time>2011-03-27T05:56:16Z</time></trkpt>
<trkpt lat="35.633191" lon="139.257330"><ele>450.2</ele><time>2011-03-27T05:56:47Z</time></trkpt>
<trkpt lat="35.633512" lon="139.257260"><ele>448.7</ele><time>2011-03-27T05:57:20Z</time></trkpt>
<trkpt lat="35.633816" lon="139.257093"><ele>446.9</ele><time>2011-03-27T05:57:56Z</time></trkpt>
<trkpt lat="35.633999" lon="139.257070"><ele>442.8</ele><time>2011-03-27T05:59:08Z</time></trkpt>
<trkpt lat="35.634337" lon="139.257238"><ele>432.4</ele><time>2011-03-27T05:59:52Z</time></trkpt>
<trkpt lat="35.634520" lon="139.257671"><ele>423.5</ele><time>2011-03-27T06:00:25Z</time></trkpt>
<trkpt lat="35.634609" lon="139.258130"><ele>413.0</ele><time>2011-03-27T06:00:56Z</time></trkpt>
<trkpt lat="35.634709" lon="139.258604"><ele>401.4</ele><time>2011-03-27T06:01:29Z</time></trkpt>
<trkpt lat="35.634904" lon="139.258991"><ele>394.1</ele><time>2011-03-27T06:02:00Z</time></trkpt>
<trkpt lat="35.635149" lon="139.259310"><ele>391.0</ele><time>2011-03-27T06:02:32Z</time></trkpt>
<trkpt lat="35.635272" lon="139.259743"><ele>378.5</ele><time>2011-03-27T06:03:06Z</time></trkpt>
<trkpt lat="35.635302" lon="139.260266"><ele>369.9</ele><time>2011-03-27T06:03:40Z</time></trkpt>
<trkpt lat="35.635444" lon="139.260695"><ele>359.8</ele><time>2011-03-27T06:04:13Z</time></trkpt>
<trkpt lat="35.635239" lon="139.260290"><ele>355.3</ele><time>2011-03-27T06:04:48Z</time></trkpt>
<trkpt lat="35.634934" lon="139.260002"><ele>345.4</ele><time>2011-03-27T06:05:12Z</time></trkpt>
<trkpt lat="35.635010" lon="139.260349"><ele>343.2</ele><time>2011-03-27T06:05:45Z</time></trkpt>
<trkpt lat="35.635099" lon="139.260757"><ele>337.2</ele><time>2011-03-27T06:06:27Z</time></trkpt>
<trkpt lat="35.635019" lon="139.261155"><ele>337.2</ele><time>2011-03-27T06:07:00Z</time></trkpt>
<trkpt lat="35.634868" lon="139.261117"><ele>331.9</ele><time>2011-03-27T06:07:40Z</time></trkpt>
<trkpt lat="35.634752" lon="139.260700"><ele>322.2</ele><time>2011-03-27T06:08:14Z</time></trkpt>
<trkpt lat="35.634441" lon="139.260410"><ele>301.6</ele><time>2011-03-27T06:08:41Z</time></trkpt>
<trkpt lat="35.634249" lon="139.260142"><ele>298.6</ele><time>2011-03-27T06:09:14Z</time></trkpt>
<trkpt lat="35.634381" lon="139.260150"><ele>298.6</ele><time>2011-03-27T06:10:01Z</time></trkpt>
<trkpt lat="35.634364" lon="139.260375"><ele>298.6</ele><time>2011-03-27T06:10:45Z</time></trkpt>
<trkpt lat="35.634328" lon="139.260200"><ele>297.4</ele><time>2011-03-27T06:11:34Z</time></trkpt>
<trkpt lat="35.634447" lon="139.260582"><ele>297.0</ele><time>2011-03-27T06:12:07Z</time></trkpt>
<trkpt lat="35.634309" lon="139.260965"><ele>289.7</ele><time>2011-03-27T06:12:36Z</time></trkpt>
<trkpt lat="35.634277" lon="139.261460"><ele>278.4</ele><time>2011-03-27T06:13:01Z</time></trkpt>
<trkpt lat="35.634068" lon="139.261766"><ele>270.2</ele><time>2011-03-27T06:13:25Z</time></trkpt>
<trkpt lat="35.633879" lon="139.262153"><ele>266.0</ele><time>2011-03-27T06:13:43Z</time></trkpt>
<trkpt lat="35.633704" lon="139.262560"><ele>259.5</ele><time>2011-03-27T06:14:09Z</time></trkpt>
<trkpt lat="35.633479" lon="139.262913"><ele>252.8</ele><time>2011-03-27T06:14:39Z</time></trkpt>
<trkpt lat="35.633301" lon="139.263308"><ele>248.4</ele><time>2011-03-27T06:15:13Z</time></trkpt>
<trkpt lat="35.633158" lon="139.263611"><ele>246.3</ele><time>2011-03-27T06:15:48Z</time></trkpt>
<trkpt lat="35.633009" lon="139.264040"><ele>240.1</ele><time>2011-03-27T06:16:20Z</time></trkpt>
<trkpt lat="35.632974" lon="139.264465"><ele>232.1</ele><time>2011-03-27T06:16:52Z</time></trkpt>
<trkpt lat="35.632831" lon="139.264932"><ele>229.7</ele><time>2011-03-27T06:17:19Z</time></trkpt>
<trkpt lat="35.632779" lon="139.265383"><ele>226.9</ele><time>2011-03-27T06:17:40Z</time></trkpt>
<trkpt lat="35.632519" lon="139.265770"><ele>217.9</ele><time>2011-03-27T06:17:58Z</time></trkpt>
<trkpt lat="35.632259" lon="139.266100"><ele>215.2</ele><time>2011-03-27T06:18:33Z</time></trkpt>
<trkpt lat="35.632029" lon="139.266453"><ele>209.8</ele><time>2011-03-27T06:18:57Z</time></trkpt>
<trkpt lat="35.631853" lon="139.266880"><ele>207.3</ele><time>2011-03-27T06:19:26Z</time></trkpt>
<trkpt lat="35.631679" lon="139.267293"><ele>204.4</ele><time>2011-03-27T06:19:50Z</time></trkpt>
<trkpt lat="35.631465" lon="139.267580"><ele>200.5</ele><time>2011-03-27T06:20:24Z</time></trkpt>
<trkpt lat="35.631329" lon="139.267761"><ele>200.5</ele><time>2011-03-27T06:21:26Z</time></trkpt>
<trkpt lat="35.631309" lon="139.267566"><ele>200.5</ele><time>2011-03-27T06:22:45Z</time></trkpt>
<trkpt lat="35.631193" lon="139.267203"><ele>200.0</ele><time>2011-03-27T06:23:27Z</time></trkpt>
<trkpt lat="35.631299" lon="139.267248"><ele>200.0</ele><time>2011-03-27T06:24:32Z</time></trkpt>
<trkpt lat="35.631252" lon="139.267615"><ele>199.7</ele><time>2011-03-27T06:25:17Z</time></trkpt>
<trkpt lat="35.631281" lon="139.268101"><ele>199.7</ele><time>2011-03-27T06:25:47Z</time></trkpt>
<trkpt lat="35.631349" lon="139.268600"><ele>199.6</ele><time>2011-03-27T06:26:18Z</time></trkpt>
</trkseg></trk></gpx>
